IRIDIUM 144             
1 43249U 18030A   24365.29212100  .00000753  00000+0  26171-3 0  9995
2 43249  86.3994 153.5953 0001819  97.0189 263.1214 14.34219432353617
IRIDIUM 149             
1 43250U 18030B   24365.36823270  .00000899  00000+0  31403-3 0  9996
2 43250  86.3994 153.5366 0002135  97.0590 263.0848 14.34220438353648
IRIDIUM 157             
1 43251U 18030C   24365.38725896  .00000245  00000+0  80299-4 0  9997
2 43251  86.3994 153.5699 0002199  92.1748 267.9699 14.34216438353629
IRIDIUM 140             
1 43252U 18030D   24365.12721027  .00000110  00000+0  32061-4 0  9997
2 43252  86.3993 153.6926 0001885  95.9072 264.2339 14.34215775353641
IRIDIUM 145             
1 43253U 18030E   24364.69590088  .00000872  00000+0  30412-3 0  9992
2 43253  86.4043 153.8446 0002296  96.4278 263.7180 14.34221318353513
IRIDIUM 146             
1 43254U 18030F   24365.16527053 -.00000001  00000+0 -74500-5 0  9992
2 43254  86.3993 153.6639 0001932 104.8351 255.3059 14.34217237353596
IRIDIUM 148             
1 43255U 18030G   24365.41262901  .00000446  00000+0  15227-3 0  9999
2 43255  86.3997 153.5956 0002038  98.7005 261.4421 14.34216853353669
IRIDIUM 142             
1 43256U 18030H   24365.17161185  .00000723  00000+0  25094-3 0  9996
2 43256  86.3992 153.6047 0002102 105.7059 254.4369 14.34218031353592
